$$SOE
2459580.500000000, A.D. 2022-Jan-01 00:00:00.0000, 1.605796043370440E+08, -3.542255074937009E+08, -2.437514184629917E+05,
2459587.500000000, A.D. 2022-Jan-08 00:00:00.0000, 1.695969683674567E+08, -3.482698350613231E+08, 9.696234859485924E+04,
2459594.500000000, A.D. 2022-Jan-15 00:00:00.0000, 1.784727714519144E+08, -3.420232931229213E+08, 4.375914945896119E+05,
2459601.500000000, A.D. 2022-Jan-22 00:00:00.0000, 1.871977685134871E+08, -3.354875735315709E+08, 7.778463631582707E+05,
2459608.500000000, A.D. 2022-Jan-29 00:00:00.0000, 1.957625971489594E+08, -3.286646271234661E+08, 1.117430422215894E+06,
2459615.500000000, A.D. 2022-Feb-05 00:00:00.0000, 2.041577784176522E+08, -3.215566770017205E+08, 1.456040325415418E+06,
2459622.500000000, A.D. 2022-Feb-12 00:00:00.0000, 2.123737205142977E+08, -3.141662333675218E+08, 1.793365702339947E+06,
2459629.500000000, A.D. 2022-Feb-19 00:00:00.0000, 2.204007240670318E+08, -3.064961075180585E+08, 2.129088994506881E+06,
2459636.500000000, A.D. 2022-Feb-26 00:00:00.0000, 2.282289878177122E+08, -2.985494257181275E+08, 2.462885400505066E+06,
2459643.500000000, A.D. 2022-Mar-05 00:00:00.0000, 2.358486149154757E+08, -2.903296435400716E+08, 2.794422867427096E+06,
2459650.500000000, A.D. 2022-Mar-12 00:00:00.0000, 2.432496201203602E+08, -2.818405607091621E+08, 3.123362105209693E+06,
2459657.500000000, A.D. 2022-Mar-19 00:00:00.0000, 2.504219380659982E+08, -2.730863363909810E+08, 3.449356622161716E+06,
2459664.500000000, A.D. 2022-Mar-26 00:00:00.0000, 2.573554326837695E+08, -2.640715048833940E+08, 3.772052781757668E+06,
2459671.500000000, A.D. 2022-Apr-02 00:00:00.0000, 2.640399079378970E+08, -2.548009917157416E+08, 4.091089872520968E+06,
2459678.500000000, A.D. 2022-Apr-09 00:00:00.0000, 2.704651202284070E+08, -2.452801300865611E+08, 4.406100169250429E+06,
2459685.500000000, A.D. 2022-Apr-16 00:00:00.0000, 2.766207929081467E+08, -2.355146769134934E+08, 4.716709009788200E+06,
2459692.500000000, A.D. 2022-Apr-23 00:00:00.0000, 2.824966317348562E+08, -2.255108273313898E+08, 5.022535096419722E+06,
2459699.500000000, A.D. 2022-Apr-30 00:00:00.0000, 2.880823394740705E+08, -2.152752297917728E+08, 5.323191013874367E+06,
2459706.500000000, A.D. 2022-May-07 00:00:00.0000, 2.933676327982870E+08, -2.048150036284258E+08, 5.618283525362119E+06,
2459713.500000000, A.D. 2022-May-14 00:00:00.0000, 2.983422629542169E+08, -1.941377559290263E+08, 5.907413771599546E+06,
2459720.500000000, A.D. 2022-May-21 00:00:00.0000, 3.029960382452313E+08, -1.832515968211470E+08, 6.190177625657402E+06,
2459727.500000000, A.D. 2022-May-28 00:00:00.0000, 3.073188479184269E+08, -1.721651539835451E+08, 6.466166173444219E+06,
2459734.500000000, A.D. 2022-Jun-04 00:00:00.0000, 3.113006877899320E+08, -1.608875865288819E+08, 6.734966272409320E+06,
2459741.500000000, A.D. 2022-Jun-11 00:00:00.0000, 3.149316877996159E+08, -1.494285980685020E+08, 6.996161178370140E+06,
2459748.500000000, A.D. 2022-Jun-18 00:00:00.0000, 3.182021415731465E+08, -1.377984487406472E+08, 7.249331241076238E+06,
2459755.500000000, A.D. 2022-Jun-25 00:00:00.0000, 3.211025380513901E+08, -1.260079660173563E+08, 7.494054666799977E+06,
2459762.500000000, A.D. 2022-Jul-02 00:00:00.0000, 3.236235953346701E+08, -1.140685541281088E+08, 7.729908334174767E+06,
2459769.500000000, A.D. 2022-Jul-09 00:00:00.0000, 3.257562971203882E+08, -1.019922016819024E+08, 7.956468645213917E+06,
2459776.500000000, A.D. 2022-Jul-16 00:00:00.0000, 3.274919316435536E+08, -8.979148614777406E+07, 8.173312508154262E+06,
2459783.500000000, A.D. 2022-Jul-23 00:00:00.0000, 3.288221308634964E+08, -7.747957485041592E+07, 8.380018663121726E+06,
2459790.500000000, A.D. 2022-Jul-30 00:00:00.0000, 3.297389098867152E+08, -6.507022556178136E+07, 8.576169069908585E+06,
2459797.500000000, A.D. 2022-Aug-06 00:00:00.0000, 3.302347100914797E+08, -5.257778575495820E+07, 8.761350080046043E+06,
2459804.500000000, A.D. 2022-Aug-13 00:00:00.0000, 3.303024449661657E+08, -4.001718747484434E+07, 8.935153692798581E+06,
2459811.500000000, A.D. 2022-Aug-20 00:00:00.0000, 3.299355468923084E+08, -2.740393804144497E+07, 9.097178996292884E+06,
2459818.500000000, A.D. 2022-Aug-27 00:00:00.0000, 3.291280146999667E+08, -1.475410703200651E+07, 9.247033725285988E+06,
2459825.500000000, A.D. 2022-Sep-03 00:00:00.0000, 3.278744619596138E+08, -2.084309383851575E+06, 9.384335899486141E+06,
2459832.500000000, A.D. 2022-Sep-10 00:00:00.0000, 3.261701657728751E+08, 1.058831565693158E+07, 9.508715530303553E+06,
2459839.500000000, A.D. 2022-Sep-17 00:00:00.0000, 3.240111157192191E+08, 2.324612996554676E+07, 9.619816385767516E+06,
2459846.500000000, A.D. 2022-Sep-24 00:00:00.0000, 3.213940626024118E+08, 3.587102649067328E+07, 9.717297794727864E+06,
2459853.500000000, A.D. 2022-Oct-01 00:00:00.0000, 3.183165667754681E+08, 4.844446386014681E+07, 9.800836455056323E+06,
2459860.500000000, A.D. 2022-Oct-08 00:00:00.0000, 3.147770459422358E+08, 6.094750626935701E+07, 9.870128236737490E+06,
2459867.500000000, A.D. 2022-Oct-15 00:00:00.0000, 3.107748209539816E+08, 7.336086991467835E+07, 9.924890147509795E+06,
2459874.500000000, A.D. 2022-Oct-22 00:00:00.0000, 3.063101568554393E+08, 8.566497429746176E+07, 9.964862508330993E+06,
2459881.500000000, A.D. 2022-Oct-29 00:00:00.0000, 3.013843010972211E+08, 9.783999573850715E+07, 9.989810879829533E+06,
2459888.500000000, A.D. 2022-Nov-05 00:00:00.0000, 2.959995204087106E+08, 1.098659257036934E+08, 9.999527750986271E+06,
2459895.500000000, A.D. 2022-Nov-12 00:00:00.0000, 2.901591337603397E+08, 1.217226349923150E+08, 9.993834253740549E+06,
2459902.500000000, A.D. 2022-Nov-19 00:00:00.0000, 2.838675401005956E+08, 1.333899425332436E+08, 9.972581870991990E+06,
2459909.500000000, A.D. 2022-Nov-26 00:00:00.0000, 2.771302405514562E+08, 1.448476880035704E+08, 9.935654059984922E+06,
2459916.500000000, A.D. 2022-Dec-03 00:00:00.0000, 2.699538546780240E+08, 1.560758077849304E+08, 9.882967752834938E+06,
2459923.500000000, A.D. 2022-Dec-10 00:00:00.0000, 2.623461303701665E+08, 1.670544137208403E+08, 9.814474709465615E+06,
2459930.500000000, A.D. 2022-Dec-17 00:00:00.0000, 2.543159469104148E+08, 1.777638740173545E+08, 9.730162697152719E+06,
2459937.500000000, A.D. 2022-Dec-24 00:00:00.0000, 2.458733109588444E+08, 1.881848955182231E+08, 9.630056460976571E+06,
2459944.500000000, A.D. 2022-Dec-31 00:00:00.0000, 2.370293455204635E+08, 1.982986066972100E+08, 9.514218442459285E+06,
2459951.500000000, A.D. 2023-Jan-07 00:00:00.0000, 2.277962718212186E+08, 2.080866415080921E+08, 9.382749296146631E+06,
2459958.500000000, A.D. 2023-Jan-14 00:00:00.0000, 2.181873820207977E+08, 2.175312237248169E+08, 9.235788409806564E+06,
2459965.500000000, A.D. 2023-Jan-21 00:00:00.0000, 2.082170021283195E+08, 2.266152477299198E+08, 9.073514218557999E+06,
2459972.500000000, A.D. 2023-Jan-28 00:00:00.0000, 1.979004489360533E+08, 2.353223546794098E+08, 8.896143953155324E+06,
2459979.500000000, A.D. 2023-Feb-04 00:00:00.0000, 1.872539810164560E+08, 2.436370061928553E+08, 8.703933083250985E+06,
2459986.500000000, A.D. 2023-Feb-11 00:00:00.0000, 1.762947423522132E+08, 2.515445545313124E+08, 8.497174603742063E+06,
2459993.500000000, A.D. 2023-Feb-18 00:00:00.0000, 1.650406990196092E+08, 2.590313076484614E+08, 8.276198106314898E+06,
2460000.500000000, A.D. 2023-Feb-25 00:00:00.0000, 1.535105697808942E+08, 2.660845882250364E+08, 8.041368605867639E+06,
2460007.500000000, A.D. 2023-Mar-04 00:00:00.0000, 1.417237513766901E+08, 2.726927860524197E+08, 7.793085123937234E+06,
2460014.500000000, A.D. 2023-Mar-11 00:00:00.0000, 1.297002393140644E+08, 2.788454031997896E+08, 7.531779039350078E+06,
2460021.500000000, A.D. 2023-Mar-18 00:00:00.0000, 1.174605450217594E+08, 2.845330914519914E+08, 7.257912214148715E+06,
2460028.500000000, A.D. 2023-Mar-25 00:00:00.0000, 1.050256104418869E+08, 2.897476816312649E+08, 6.971974893541664E+06,
2460035.500000000, A.D. 2023-Apr-01 00:00:00.0000, 9.241672138359050E+07, 2.944822049954733E+08, 6.674483398880348E+06,
2460042.500000000, A.D. 2023-Apr-08 00:00:00.0000, 7.965541995370352E+07, 2.987309078692849E+08, 6.365977797565401E+06,
2460049.500000000, A.D. 2023-Apr-15 00:00:00.0000, 6.676341465870039E+07, 3.024892584363808E+08, 6.047019700838029E+06,
2460056.500000000, A.D. 2023-Apr-22 00:00:00.0000, 5.376249087917829E+07, 3.057539427883195E+08, 5.718189802862480E+06,
2460063.500000000, A.D. 2023-Apr-29 00:00:00.0000, 4.067442531071094E+07, 3.085228527582203E+08, 5.380085122049049E+06,
2460070.500000000, A.D. 2023-May-06 00:00:00.0000, 2.752090341680868E+07, 3.107950676808576E+08, 5.033316277582884E+06,
2460077.500000000, A.D. 2023-May-13 00:00:00.0000, 1.432343964313831E+07, 3.125708296305203E+08, 4.678504844248772E+06,
2460084.500000000, A.D. 2023-May-20 00:00:00.0000, 1.103301272374755E+06, 3.138515121738679E+08, 4.316280749767050E+06,
2460091.500000000, A.D. 2023-May-27 00:00:00.0000, -1.211856332711499E+07, 3.146395832018844E+08, 3.947279718590021E+06,
2460098.500000000, A.D. 2023-Jun-03 00:00:00.0000, -2.532159153309215E+07, 3.149385625084656E+08, 3.572140781026810E+06,
2460105.500000000, A.D. 2023-Jun-10 00:00:00.0000, -3.848566798470474E+07, 3.147529747759168E+08, 3.191503864104658E+06,
2460112.500000000, A.D. 2023-Jun-17 00:00:00.0000, -5.159118041407421E+07, 3.140882985989161E+08, 2.806007468333349E+06,
2460119.500000000, A.D. 2023-Jun-24 00:00:00.0000, -6.461906928976119E+07, 3.129509122980203E+08, 2.416286420265347E+06,
2460126.500000000, A.D. 2023-Jul-01 00:00:00.0000, -7.755087092501859E+07, 3.113480380391915E+08, 2.022969757329568E+06,
2460133.500000000, A.D. 2023-Jul-08 00:00:00.0000, -9.036875571289569E+07, 3.092876857545339E+08, 1.626678974458531E+06,
2460140.500000000, A.D. 2023-Jul-15 00:00:00.0000, -1.030555628211065E+08, 3.067785946702778E+08, 1.228026524602517E+06,
2460147.500000000, A.D. 2023-Jul-22 00:00:00.0000, -1.155948279572306E+08, 3.038301719926442E+08, 8.276141712255776E+05,
$$EOE